{
  "type": "FeatureCollection",
  "features": [
    {
      "type": "Feature",
      "properties": {
        "norad_id": 28899,
        "name": "INMARSAT 4-F2 (SOUTHPAN/PRN 122)",
        "group": "gnss",
        "lat": -1.037509286149873,
        "lon": 31.125594635772632,
        "alt_km": 35796.816077977775,
        "timestamp": "2025-12-06T11:28:11.305233+00:00",
        "meta_object_name": "INMARSAT 4-F2 (SOUTHPAN/PRN 122)",
        "meta_object_id": "2005-044A",
        "meta_epoch": "2025-12-05T14:22:47.068032",
        "meta_mean_motion": 1.00270981,
        "meta_eccentricity": 0.00034339,
        "meta_inclination": 4.8431,
        "meta_ra_of_asc_node": 43.6699,
        "meta_arg_of_pericenter": 212.4325,
        "meta_mean_anomaly": 177.7462,
        "meta_ephemeris_type": 0,
        "meta_classification_type": "U",
        "meta_norad_cat_id": 28899,
        "meta_element_set_no": 999,
        "meta_rev_at_epoch": 7358,
        "meta_bstar": 0,
        "meta_mean_motion_dot": -2.53e-06,
        "meta_mean_motion_ddot": 0,
        "tle_line1": "1 28899U 05044A   25339.59915588 -.00000253  00000+0  00000+0 0  9990",
        "tle_line2": "2 28899   4.8431  43.6699 0003433 212.4325 177.7462  1.00270981 73582"
      },
      "geometry": {
        "type": "Point",
        "coordinates": [
          31.125594635772632,
          -1.037509286149873
        ]
      }
    },
    {
      "type": "Feature",
      "properties": {
        "norad_id": 29486,
        "name": "GPS BIIRM-2 (PRN 31)",
        "group": "gnss",
        "lat": -37.38612649305069,
        "lon": 126.17262093160137,
        "alt_km": 20233.72015120474,
        "timestamp": "2025-12-06T11:28:11.305246+00:00",
        "meta_object_name": "GPS BIIRM-2 (PRN 31)",
        "meta_object_id": "2006-042A",
        "meta_epoch": "2025-12-05T13:29:33.507168",
        "meta_mean_motion": 2.00554326,
        "meta_eccentricity": 0.01073593,
        "meta_inclination": 54.693,
        "meta_ra_of_asc_node": 159.0256,
        "meta_arg_of_pericenter": 51.7863,
        "meta_mean_anomaly": 320.1689,
        "meta_ephemeris_type": 0,
        "meta_classification_type": "U",
        "meta_norad_cat_id": 29486,
        "meta_element_set_no": 999,
        "meta_rev_at_epoch": 14051,
        "meta_bstar": 0,
        "meta_mean_motion_dot": 7.3e-07,
        "meta_mean_motion_ddot": 0,
        "tle_line1": "1 29486U 06042A   25339.56219337  .00000073  00000+0  00000+0 0  9997",
        "tle_line2": "2 29486  54.6930 159.0256 0107359  51.7863 320.1689  2.00554326140518"
      },
      "geometry": {
        "type": "Point",
        "coordinates": [
          126.17262093160137,
          -37.38612649305069
        ]
      }
    },
    {
      "type": "Feature",
      "properties": {
        "norad_id": 29601,
        "name": "GPS BIIRM-3 (PRN 12)",
        "group": "gnss",
        "lat": 7.590987219583937,
        "lon": -132.98559820048183,
        "alt_km": 20130.559823331838,
        "timestamp": "2025-12-06T11:28:11.305258+00:00",
        "meta_object_name": "GPS BIIRM-3 (PRN 12)",
        "meta_object_id": "2006-052A",
        "meta_epoch": "2025-12-04T23:15:57.837888",
        "meta_mean_motion": 2.00572904,
        "meta_eccentricity": 0.00875961,
        "meta_inclination": 54.9722,
        "meta_ra_of_asc_node": 221.7066,
        "meta_arg_of_pericenter": 87.3581,
        "meta_mean_anomaly": 273.7369,
        "meta_ephemeris_type": 0,
        "meta_classification_type": "U",
        "meta_norad_cat_id": 29601,
        "meta_element_set_no": 999,
        "meta_rev_at_epoch": 13951,
        "meta_bstar": 0,
        "meta_mean_motion_dot": 5.8e-07,
        "meta_mean_motion_ddot": 0,
        "tle_line1": "1 29601U 06052A   25338.96941942  .00000058  00000+0  00000+0 0  9997",
        "tle_line2": "2 29601  54.9722 221.7066 0087596  87.3581 273.7369  2.00572904139515"
      },
      "geometry": {
        "type": "Point",
        "coordinates": [
          -132.98559820048183,
          7.590987219583937
        ]
      }
    },
    {
      "type": "Feature",
      "properties": {
        "norad_id": 32260,
        "name": "GPS BIIRM-4 (PRN 15)",
        "group": "gnss",
        "lat": 22.079929591196777,
        "lon": -109.14929407873849,
        "alt_km": 20003.981223517814,
        "timestamp": "2025-12-06T11:28:11.305271+00:00",
        "meta_object_name": "GPS BIIRM-4 (PRN 15)",
        "meta_object_id": "2007-047A",
        "meta_epoch": "2025-12-05T06:35:49.168896",
        "meta_mean_motion": 2.0056471,
        "meta_eccentricity": 0.01643532,
        "meta_inclination": 53.9502,
        "meta_ra_of_asc_node": 88.0669,
        "meta_arg_of_pericenter": 85.1619,
        "meta_mean_anomaly": 276.6895,
        "meta_ephemeris_type": 0,
        "meta_classification_type": "U",
        "meta_norad_cat_id": 32260,
        "meta_element_set_no": 999,
        "meta_rev_at_epoch": 13292,
        "meta_bstar": 0,
        "meta_mean_motion_dot": -2.6e-07,
        "meta_mean_motion_ddot": 0,
        "tle_line1": "1 32260U 07047A   25339.27487464 -.00000026  00000+0  00000+0 0  9992",
        "tle_line2": "2 32260  53.9502  88.0669 0164353  85.1619 276.6895  2.00564710132923"
      },
      "geometry": {
        "type": "Point",
        "coordinates": [
          -109.14929407873849,
          22.079929591196777
        ]
      }
    },
    {
      "type": "Feature",
      "properties": {
        "norad_id": 32275,
        "name": "COSMOS 2433 (720)",
        "group": "gnss",
        "lat": -28.965791237473454,
        "lon": -52.08752218335589,
        "alt_km": 19130.038049419687,
        "timestamp": "2025-12-06T11:28:11.305283+00:00",
        "meta_object_name": "COSMOS 2433 (720)",
        "meta_object_id": "2007-052A",
        "meta_epoch": "2025-12-05T02:41:16.127808",
        "meta_mean_motion": 2.1310391,
        "meta_eccentricity": 0.00054971,
        "meta_inclination": 65.6874,
        "meta_ra_of_asc_node": 322.462,
        "meta_arg_of_pericenter": 253.0747,
        "meta_mean_anomaly": 106.8638,
        "meta_ephemeris_type": 0,
        "meta_classification_type": "U",
        "meta_norad_cat_id": 32275,
        "meta_element_set_no": 999,
        "meta_rev_at_epoch": 14092,
        "meta_bstar": 0,
        "meta_mean_motion_dot": -4.7e-07,
        "meta_mean_motion_ddot": 0,
        "tle_line1": "1 32275U 07052A   25339.11199222 -.00000047  00000+0  00000+0 0  9992",
        "tle_line2": "2 32275  65.6874 322.4620 0005497 253.0747 106.8638  2.13103910140927"
      },
      "geometry": {
        "type": "Point",
        "coordinates": [
          -52.08752218335589,
          -28.965791237473454
        ]
      }
    },
    {
      "type": "Feature",
      "properties": {
        "norad_id": 32276,
        "name": "COSMOS 2432 (719)",
        "group": "gnss",
        "lat": -65.58968506819299,
        "lon": -121.99274994499058,
        "alt_km": 19114.22232133755,
        "timestamp": "2025-12-06T11:28:11.305295+00:00",
        "meta_object_name": "COSMOS 2432 (719)",
        "meta_object_id": "2007-052B",
        "meta_epoch": "2025-12-04T17:08:15.006912",
        "meta_mean_motion": 2.13103047,
        "meta_eccentricity": 0.00112577,
        "meta_inclination": 65.7035,
        "meta_ra_of_asc_node": 322.5994,
        "meta_arg_of_pericenter": 311.684,
        "meta_mean_anomaly": 47.4656,
        "meta_ephemeris_type": 0,
        "meta_classification_type": "U",
        "meta_norad_cat_id": 32276,
        "meta_element_set_no": 999,
        "meta_rev_at_epoch": 14093,
        "meta_bstar": 0,
        "meta_mean_motion_dot": -4.6e-07,
        "meta_mean_motion_ddot": 0,
        "tle_line1": "1 32276U 07052B   25338.71406258 -.00000046  00000+0  00000+0 0  9997",
        "tle_line2": "2 32276  65.7035 322.5994 0011257 311.6840  47.4656  2.13103047140931"
      },
      "geometry": {
        "type": "Point",
        "coordinates": [
          -121.99274994499058,
          -65.58968506819299
        ]
      }
    },
    {
      "type": "Feature",
      "properties": {
        "norad_id": 32384,
        "name": "GPS BIIRM-5 (PRN 29)",
        "group": "gnss",
        "lat": -54.01474008848484,
        "lon": -151.24397907707214,
        "alt_km": 20225.696332511892,
        "timestamp": "2025-12-06T11:28:11.305307+00:00",
        "meta_object_name": "GPS BIIRM-5 (PRN 29)",
        "meta_object_id": "2007-062A",
        "meta_epoch": "2025-12-05T07:59:29.428800",
        "meta_mean_motion": 2.00576795,
        "meta_eccentricity": 0.00322138,
        "meta_inclination": 55.1888,
        "meta_ra_of_asc_node": 281.943,
        "meta_arg_of_pericenter": 162.7364,
        "meta_mean_anomaly": 9.9869,
        "meta_ephemeris_type": 0,
        "meta_classification_type": "U",
        "meta_norad_cat_id": 32384,
        "meta_element_set_no": 999,
        "meta_rev_at_epoch": 13162,
        "meta_bstar": 0,
        "meta_mean_motion_dot": -3.8e-07,
        "meta_mean_motion_ddot": 0,
        "tle_line1": "1 32384U 07062A   25339.33297950 -.00000038  00000+0  00000+0 0  9995",
        "tle_line2": "2 32384  55.1888 281.9430 0032213 162.7364   9.9869  2.00576795131629"
      },
      "geometry": {
        "type": "Point",
        "coordinates": [
          -151.24397907707214,
          -54.01474008848484
        ]
      }
    }
  ]
}